[{"OBJECT_NAME":"STARLINK-35689","OBJECT_ID":"2025-263K","EPOCH":"2026-03-08T20:00:45.499680","MEAN_MOTION":15.27592341,"ECCENTRICITY":2.688e-5,"INCLINATION":42.9976,"RA_OF_ASC_NODE":355.9128,"ARG_OF_PERICENTER":198.9212,"MEAN_ANOMALY":161.1629,"EPHEMERIS_TYPE":0,"CLASSIFICATION_TYPE":"U","NORAD_CAT_ID":66494,"ELEMENT_SET_NO":999,"REV_AT_EPOCH":1876,"BSTAR":0.0012986677,"MEAN_MOTION_DOT":0.00035661,"MEAN_MOTION_DDOT":0},{"OBJECT_NAME":"SL-3 R\/B","OBJECT_ID":"1982-027B","EPOCH":"2026-03-09T22:44:40.208640","MEAN_MOTION":15.28335844,"ECCENTRICITY":0.00065199,"INCLINATION":81.188,"RA_OF_ASC_NODE":37.4466,"ARG_OF_PERICENTER":276.581,"MEAN_ANOMALY":83.4683,"EPHEMERIS_TYPE":0,"CLASSIFICATION_TYPE":"U","NORAD_CAT_ID":13121,"ELEMENT_SET_NO":999,"REV_AT_EPOCH":39859,"BSTAR":0.00030526741,"MEAN_MOTION_DOT":8.453e-5,"MEAN_MOTION_DDOT":0}]
